NORAD_CAT_ID,OBJECT_NAME,OBJECT_TYPE,EPOCH,MEAN_MOTION,ECCENTRICITY,INCLINATION,RA_OF_ASC_NODE,ARG_OF_PERICENTER,MEAN_ANOMALY,BSTAR,MEAN_MOTION_DOT,MEAN_MOTION_DDOT,TLE_LINE0,TLE_LINE1,TLE_LINE2,SEMIMAJOR_AXIS,PERIOD,APOGEE,PERIGEE,DECAYED
55768.0,STARLINK-5583,PAYLOAD,2023-04-18 01:19:15,15.69933057,0.0003403,70.0021,27.8493,259.9539,100.1273,2.0531e-05,2.258e-05,0.0,0 STARLINK-5583,1 55768U 23028AD  23108.05503841  .00002258  00000-0  20531-4 0  9998,2 55768  70.0021  27.8493 0003403 259.9539 100.1273 15.69933057  7771,6737.226,91.724,361.383,356.798,0.0
55768.0,STARLINK-5583,PAYLOAD,2023-04-18 04:22:45,15.6993029,0.0003267,70.003,27.4897,259.2358,100.847,3.1296e-05,3.553e-05,0.0,0 STARLINK-5583,1 55768U 23028AD  23108.18247319  .00003553  00000-0  31296-4 0  9996,2 55768  70.0030  27.4897 0003267 259.2358 100.8470 15.69930290  7801,6737.233,91.724,361.299,356.897,0.0
55768.0,STARLINK-5583,PAYLOAD,2023-04-18 18:08:32,15.69916134,0.0003086,70.0017,25.8749,262.6136,97.4709,1.7206e-05,1.856e-05,0.0,0 STARLINK-5583,1 55768U 23028AD  23108.75593209  .00001856  00000-0  17206-4 0  9990,2 55768  70.0017  25.8749 0003086 262.6136  97.4709 15.69916134  7891,6737.274,91.725,361.218,357.06,0.0
55768.0,STARLINK-5583,PAYLOAD,2023-04-19 04:50:47,15.69931254,0.0002689,70.0025,24.622,247.5967,112.4944,3.4218e-05,3.905e-05,0.0,0 STARLINK-5583,1 55768U 23028AD  23109.20194248  .00003905  00000-0  34218-4 0  9990,2 55768  70.0025  24.6220 0002689 247.5967 112.4944 15.69931254  7959,6737.231,91.724,360.907,357.284,0.0
55768.0,STARLINK-5583,PAYLOAD,2023-04-20 00:43:34,15.69923016,0.000248,70.004,22.296,257.0238,103.0681,2.2734e-05,2.522e-05,0.0,0 STARLINK-5583,1 55768U 23028AD  23110.03026323  .00002522  00000-0  22734-4 0  9995,2 55768  70.0040  22.2960 0002480 257.0238 103.0681 15.69923016  8083,6737.254,91.724,360.79,357.448,0.0
55768.0,STARLINK-5583,PAYLOAD,2023-04-20 03:47:04,15.69921821,0.0003275,70.0018,21.9361,264.2402,95.842,1.5261e-05,1.623e-05,0.0,0 STARLINK-5583,1 55768U 23028AD  23110.15769636  .00001623  00000-0  15261-4 0  9997,2 55768  70.0018  21.9361 0003275 264.2402  95.8420 15.69921821  8110,6737.258,91.724,361.329,356.916,0.0
55768.0,STARLINK-5583,PAYLOAD,2023-04-21 02:43:21,15.6993672,0.0003073,70.0024,19.2493,237.2773,122.8127,2.6497e-05,2.976e-05,0.0,0 STARLINK-5583,1 55768U 23028AD  23111.11344041  .00002976  00000-0  26497-4 0  9998,2 55768  70.0024  19.2493 0003073 237.2773 122.8127 15.69936720  8254,6737.215,91.723,361.15,357.01,0.0
55768.0,STARLINK-5583,PAYLOAD,2023-04-22 00:07:53,15.69927051,0.0003777,70.0018,16.7406,268.4288,91.6475,1.6103e-06,-1.9e-07,0.0,0 STARLINK-5583,1 55768U 23028AD  23112.00547676 -.00000019  00000-0  16103-5 0  9997,2 55768  70.0018  16.7406 0003777 268.4288  91.6475 15.69927051  8404,6737.243,91.724,361.652,356.563,0.0
55768.0,STARLINK-5583,PAYLOAD,2023-04-22 16:57:09,15.69920901,0.0003859,70.0005,14.7706,266.5366,93.5388,-3.1393e-05,-3.986e-05,0.0,0 STARLINK-5583,1 55768U 23028AD  23112.70636447 -.00003986  00000-0 -31393-4 0  9993,2 55768  70.0005  14.7706 0003859 266.5366  93.5388 15.69920901  8511,6737.26,91.724,361.725,356.525,0.0
55768.0,STARLINK-5583,PAYLOAD,2023-04-23 02:07:40,15.6992941,0.0003326,69.9992,13.696,255.2259,104.8569,-6.4919e-06,-9.93e-06,0.0,0 STARLINK-5583,1 55768U 23028AD  23113.08866528 -.00000993  00000-0 -64919-5 0  9996,2 55768  69.9992  13.6960 0003326 255.2259 104.8569 15.69929410  8575,6737.236,91.724,361.342,356.86,0.0
55768.0,STARLINK-5583,PAYLOAD,2023-04-23 17:25:11,15.69932548,0.0003523,70.0015,11.9062,255.9003,104.1801,2.0716e-05,2.28e-05,0.0,0 STARLINK-5583,1 55768U 23028AD  23113.72582781  .00002280  00000-0  20716-4 0  9998,2 55768  70.0015  11.9062 0003523 255.9003 104.1801 15.69932548  8669,6737.227,91.724,361.466,356.718,0.0
55768.0,STARLINK-5583,PAYLOAD,2023-04-23 23:32:11,15.69943408,0.0003504,70.0017,11.1867,263.1791,96.9006,2.7772e-05,3.131e-05,0.0,0 STARLINK-5583,1 55768U 23028AD  23113.98068773  .00003131  00000-0  27772-4 0  9991,2 55768  70.0017  11.1867 0003504 263.1791  96.9006 15.69943408  8707,6737.196,91.723,361.422,356.7,0.0
55768.0,STARLINK-5583,PAYLOAD,2023-04-24 01:03:56,15.69952353,0.0003599,69.9997,11.0074,264.9779,95.1006,4.9586e-05,5.761e-05,0.0,0 STARLINK-5583,1 55768U 23028AD  23114.04440041  .00005761  00000-0  49586-4 0  9999,2 55768  69.9997  11.0074 0003599 264.9779  95.1006 15.69952353  8710,6737.17,91.723,361.46,356.611,0.0
55768.0,STARLINK-5583,PAYLOAD,2023-04-24 16:21:28,15.69933541,0.0003545,69.9994,9.2136,263.6197,96.4595,3.7888e-05,4.347e-05,0.0,0 STARLINK-5583,1 55768U 23028AD  23114.68157453  .00004347  00000-0  37888-4 0  9992,2 55768  69.9994   9.2136 0003545 263.6197  96.4595 15.69933541  8812,6737.224,91.724,361.477,356.701,0.0
55768.0,STARLINK-5583,PAYLOAD,2023-04-25 03:03:45,15.69893475,0.000361,69.9989,7.9603,263.7465,96.332,-4.4188e-05,-5.516e-05,0.0,0 STARLINK-5583,1 55768U 23028AD  23115.12761311 -.00005516  00000-0 -44188-4 0  9998,2 55768  69.9989   7.9603 0003610 263.7465  96.3320 15.69893475  8896,6737.339,91.726,361.636,356.772,0.0
55768.0,STARLINK-5583,PAYLOAD,2023-04-26 02:00:02,15.69932329,0.000325,69.9996,5.2754,267.5043,92.578,4.5016e-05,5.205e-05,0.0,0 STARLINK-5583,1 55768U 23028AD  23116.08336180  .00005205  00000-0  45016-4 0  9990,2 55768  69.9996   5.2754 0003250 267.5043  92.5780 15.69932329  9044,6737.228,91.724,361.282,356.903,0.0
55768.0,STARLINK-5583,PAYLOAD,2023-04-26 15:45:47,15.69940248,0.0003364,69.9993,3.6637,260.7667,99.3148,0.00011295,0.00013399,0.0,0 STARLINK-5583,1 55768U 23028AD  23116.65680378  .00013399  00000-0  11295-3 0  9998,2 55768  69.9993   3.6637 0003364 260.7667  99.3148 15.69940248  9138,6737.205,91.723,361.336,356.804,0.0
55768.0,STARLINK-5583,PAYLOAD,2023-04-27 02:28:03,15.69933856,0.0004712,70.001,2.4077,257.8405,102.2263,7.9546e-05,9.369e-05,0.0,0 STARLINK-5583,1 55768U 23028AD  23117.10282075  .00009369  00000-0  79546-4 0  9997,2 55768  70.0010   2.4077 0004712 257.8405 102.2263 15.69933856  9196,6737.223,91.724,362.263,355.914,0.0
55768.0,STARLINK-5583,PAYLOAD,2023-04-28 01:24:20,15.6993781,0.0003617,69.9989,359.7224,270.1408,89.9373,-9.4932e-06,-1.355e-05,0.0,0 STARLINK-5583,1 55768U 23028AD  23118.05856727 -.00001355  00000-0 -94932-5 0  9999,2 55768  69.9989 359.7224 0003617 270.1408  89.9373 15.69937810  9348,6737.212,91.723,361.514,356.64,0.0
55768.0,STARLINK-5583,PAYLOAD,2023-04-28 09:03:06,15.69927006,0.0003375,69.9975,358.8271,265.6957,94.3853,-1.4857e-05,-1.999e-05,0.0,0 STARLINK-5583,1 55768U 23028AD  23118.37716412 -.00001999  00000-0 -14857-4 0  9991,2 55768  69.9975 358.8271 0003375 265.6957  94.3853 15.69927006  9398,6737.243,91.724,361.382,356.834,0.0
55768.0,STARLINK-5583,PAYLOAD,2023-04-29 01:52:22,15.69928274,0.0003421,69.9991,356.8569,264.1567,95.9239,5.2779e-06,4.22e-06,0.0,0 STARLINK-5583,1 55768U 23028AD  23119.07803451  .00000422  00000-0  52779-5 0  9993,2 55768  69.9991 356.8569 0003421 264.1567  95.9239 15.69928274  9503,6737.239,91.724,361.409,356.799,0.0
55768.0,STARLINK-5583,PAYLOAD,2023-04-29 17:09:53,15.69920205,0.0003301,69.9994,355.0646,273.0224,87.0594,-6.307e-06,-9.71e-06,0.0,0 STARLINK-5583,1 55768U 23028AD  23119.71520679 -.00000971  00000-0 -63070-5 0  9999,2 55768  69.9994 355.0646 0003301 273.0224  87.0594 15.69920205  9602,6737.262,91.724,361.351,356.903,0.0
55768.0,STARLINK-5583,PAYLOAD,2023-04-30 02:20:24,15.69914693,0.0003794,69.9968,353.9897,263.6477,96.4286,-4.5834e-06,-7.64e-06,0.0,0 STARLINK-5583,1 55768U 23028AD  23120.09750931 -.00000764  00000-0 -45834-5 0  9996,2 55768  69.9968 353.9897 0003794 263.6477  96.4286 15.69914693  9672,6737.278,91.725,361.699,356.587,0.0
55768.0,STARLINK-5583,PAYLOAD,2023-04-30 17:37:56,15.69916832,0.0003617,69.9974,352.197,272.98,87.0982,-9.6536e-06,-1.373e-05,0.0,0 STARLINK-5583,1 55768U 23028AD  23120.73468134 -.00001373  00000-0 -96536-5 0  9990,2 55768  69.9974 352.1970 0003617 272.9800  87.0982 15.69916832  9765,6737.272,91.725,361.574,356.7,0.0
55768.0,STARLINK-5583,PAYLOAD,2023-05-01 01:16:41,15.69922339,0.0003285,69.9979,351.3016,277.3755,82.7068,7.281e-06,6.63e-06,0.0,0 STARLINK-5583,1 55768U 23028AD  23121.05325961  .00000663  00000-0  72810-5 0  9994,2 55768  69.9979 351.3016 0003285 277.3755  82.7068 15.69922339  9813,6737.256,91.724,361.334,356.908,0.0
55768.0,STARLINK-5583,PAYLOAD,2023-05-01 18:05:57,15.69931446,0.000341,69.9979,349.3305,273.0858,86.9948,1.4338e-05,1.512e-05,0.0,0 STARLINK-5583,1 55768U 23028AD  23121.75413714  .00001512  00000-0  14338-4 0  9999,2 55768  69.9979 349.3305 0003410 273.0858  86.9948 15.69931446  9922,6737.23,91.724,361.393,356.798,0.0
55768.0,STARLINK-5583,PAYLOAD,2023-05-02 01:44:43,15.69932844,0.0003515,69.9996,348.436,269.7199,90.3594,1.3308e-05,1.388e-05,0.0,0 STARLINK-5583,1 55768U 23028AD  23122.07271992  .00001388  00000-0  13308-4 0  9992,2 55768  69.9996 348.4360 0003515 269.7199  90.3594 15.69932844  9983,6737.226,91.724,361.459,356.723,0.0
55768.0,STARLINK-5583,PAYLOAD,2023-05-02 18:33:59,15.69922693,0.0003376,69.999,346.4648,269.1811,90.8998,1.028e-05,1.023e-05,0.0,0 STARLINK-5583,1 55768U 23028AD  23122.77361073  .00001023  00000-0  10280-4 0  9991,2 55768  69.9990 346.4648 0003376 269.1811  90.8998 15.69922693 10081,6737.255,91.724,361.395,356.846,0.0
55768.0,STARLINK-5583,PAYLOAD,2023-05-02 21:37:30,15.69924966,0.0003553,69.9987,346.1063,264.903,95.176,1.8213e-05,1.978e-05,0.0,0 STARLINK-5583,1 55768U 23028AD  23122.90104176  .00001978  00000-0  18213-4 0  9998,2 55768  69.9987 346.1063 0003553 264.9030  95.1760 15.69924966 10112,6737.249,91.724,361.507,356.72,0.0
55768.0,STARLINK-5583,PAYLOAD,2023-05-03 00:41:00,15.69911122,0.0003229,69.9993,345.749,264.7343,95.3484,-1.9621e-05,-2.57e-05,0.0,0 STARLINK-5583,1 55768U 23028AD  23123.02848249 -.00002570  00000-0 -19621-4 0  9993,2 55768  69.9993 345.7490 0003229 264.7343  95.3484 15.69911122 10129,6737.288,91.725,361.329,356.978,0.0
